{
  "type": "FeatureCollection",
  "features": [
    {
      "type": "Feature",
      "properties": {
        "norad_id": 35744,
        "name": "IRIDIUM 33 DEB",
        "group": "iridium-33-debris",
        "lat": 36.11885114721438,
        "lon": 146.0302609118287,
        "alt_km": 652.8166335968999,
        "timestamp": "2025-12-05T11:32:56.402878+00:00",
        "meta_object_name": "IRIDIUM 33 DEB",
        "meta_object_id": "1997-051RX",
        "meta_epoch": "2025-12-03T16:26:33.199008",
        "meta_mean_motion": 14.70784036,
        "meta_eccentricity": 0.00192992,
        "meta_inclination": 86.3279,
        "meta_ra_of_asc_node": 329.5276,
        "meta_arg_of_pericenter": 226.2399,
        "meta_mean_anomaly": 133.722,
        "meta_ephemeris_type": 0,
        "meta_classification_type": "U",
        "meta_norad_cat_id": 35744,
        "meta_element_set_no": 999,
        "meta_rev_at_epoch": 87198,
        "meta_bstar": 0.0017711667,
        "meta_mean_motion_dot": 0.0001087,
        "meta_mean_motion_ddot": 0,
        "tle_line1": "1 35744U 97051RX  25337.68510647  .00010870  00000+0  17712-2 0  9997",
        "tle_line2": "2 35744  86.3279 329.5276 0019299 226.2399 133.7220 14.70784036871988"
      },
      "geometry": {
        "type": "Point",
        "coordinates": [
          146.0302609118287,
          36.11885114721438
        ]
      }
    },
    {
      "type": "Feature",
      "properties": {
        "norad_id": 35797,
        "name": "IRIDIUM 33 DEB",
        "group": "iridium-33-debris",
        "lat": -72.58716725335962,
        "lon": -38.48344609192708,
        "alt_km": 632.2333685105068,
        "timestamp": "2025-12-05T11:32:56.402889+00:00",
        "meta_object_name": "IRIDIUM 33 DEB",
        "meta_object_id": "1997-051SF",
        "meta_epoch": "2025-12-04T06:43:04.165248",
        "meta_mean_motion": 14.82394656,
        "meta_eccentricity": 0.0011901,
        "meta_inclination": 86.3354,
        "meta_ra_of_asc_node": 333.8596,
        "meta_arg_of_pericenter": 177.769,
        "meta_mean_anomaly": 182.3588,
        "meta_ephemeris_type": 0,
        "meta_classification_type": "U",
        "meta_norad_cat_id": 35797,
        "meta_element_set_no": 999,
        "meta_rev_at_epoch": 87215,
        "meta_bstar": 0.0041876,
        "meta_mean_motion_dot": 0.0003372,
        "meta_mean_motion_ddot": 0,
        "tle_line1": "1 35797U 97051SF  25338.27990932  .00033720  00000+0  41876-2 0  9997",
        "tle_line2": "2 35797  86.3354 333.8596 0011901 177.7690 182.3588 14.82394656872154"
      },
      "geometry": {
        "type": "Point",
        "coordinates": [
          -38.48344609192708,
          -72.58716725335962
        ]
      }
    },
    {
      "type": "Feature",
      "properties": {
        "norad_id": 35806,
        "name": "IRIDIUM 33 DEB",
        "group": "iridium-33-debris",
        "lat": 6.295891016642621,
        "lon": -156.57982745456047,
        "alt_km": 701.6686078116345,
        "timestamp": "2025-12-05T11:32:56.402899+00:00",
        "meta_object_name": "IRIDIUM 33 DEB",
        "meta_object_id": "1997-051SQ",
        "meta_epoch": "2025-12-04T10:02:10.629312",
        "meta_mean_motion": 14.57216644,
        "meta_eccentricity": 0.0016293,
        "meta_inclination": 86.3444,
        "meta_ra_of_asc_node": 24.2921,
        "meta_arg_of_pericenter": 100.3315,
        "meta_mean_anomaly": 259.9731,
        "meta_ephemeris_type": 0,
        "meta_classification_type": "U",
        "meta_norad_cat_id": 35806,
        "meta_element_set_no": 999,
        "meta_rev_at_epoch": 86203,
        "meta_bstar": 0.0027811,
        "meta_mean_motion_dot": 0.00012613,
        "meta_mean_motion_ddot": 0,
        "tle_line1": "1 35806U 97051SQ  25338.41817858  .00012613  00000+0  27811-2 0  9990",
        "tle_line2": "2 35806  86.3444  24.2921 0016293 100.3315 259.9731 14.57216644862032"
      },
      "geometry": {
        "type": "Point",
        "coordinates": [
          -156.57982745456047,
          6.295891016642621
        ]
      }
    },
    {
      "type": "Feature",
      "properties": {
        "norad_id": 35809,
        "name": "IRIDIUM 33 DEB",
        "group": "iridium-33-debris",
        "lat": 60.123829862234714,
        "lon": -14.92689532057607,
        "alt_km": 643.7328093419119,
        "timestamp": "2025-12-05T11:32:56.402909+00:00",
        "meta_object_name": "IRIDIUM 33 DEB",
        "meta_object_id": "1997-051ST",
        "meta_epoch": "2025-12-01T17:44:51.390816",
        "meta_mean_motion": 14.75313912,
        "meta_eccentricity": 0.00099663,
        "meta_inclination": 86.3281,
        "meta_ra_of_asc_node": 340.3571,
        "meta_arg_of_pericenter": 290.7283,
        "meta_mean_anomaly": 69.2867,
        "meta_ephemeris_type": 0,
        "meta_classification_type": "U",
        "meta_norad_cat_id": 35809,
        "meta_element_set_no": 999,
        "meta_rev_at_epoch": 86645,
        "meta_bstar": 0.0015973304,
        "meta_mean_motion_dot": 0.00010859,
        "meta_mean_motion_ddot": 0,
        "tle_line1": "1 35809U 97051ST  25335.73948369  .00010859  00000+0  15973-2 0  9993",
        "tle_line2": "2 35809  86.3281 340.3571 0009966 290.7283  69.2867 14.75313912866452"
      },
      "geometry": {
        "type": "Point",
        "coordinates": [
          -14.92689532057607,
          60.123829862234714
        ]
      }
    },
    {
      "type": "Feature",
      "properties": {
        "norad_id": 35846,
        "name": "IRIDIUM 33 DEB",
        "group": "iridium-33-debris",
        "lat": -30.409754120858672,
        "lon": 59.80430162555781,
        "alt_km": 762.0128090588096,
        "timestamp": "2025-12-05T11:32:56.402919+00:00",
        "meta_object_name": "IRIDIUM 33 DEB",
        "meta_object_id": "1997-051SW",
        "meta_epoch": "2025-11-15T14:04:07.017312",
        "meta_mean_motion": 14.42992821,
        "meta_eccentricity": 0.00163082,
        "meta_inclination": 86.3745,
        "meta_ra_of_asc_node": 70.4244,
        "meta_arg_of_pericenter": 263.1259,
        "meta_mean_anomaly": 96.8086,
        "meta_ephemeris_type": 0,
        "meta_classification_type": "U",
        "meta_norad_cat_id": 35846,
        "meta_element_set_no": 999,
        "meta_rev_at_epoch": 70937,
        "meta_bstar": 0.0011049939,
        "meta_mean_motion_dot": 3.722e-05,
        "meta_mean_motion_ddot": 0,
        "tle_line1": "1 35846U 97051SW  25319.58619233  .00003722  00000+0  11050-2 0  9997",
        "tle_line2": "2 35846  86.3745  70.4244 0016308 263.1259  96.8086 14.42992821709373"
      },
      "geometry": {
        "type": "Point",
        "coordinates": [
          59.80430162555781,
          -30.409754120858672
        ]
      }
    },
    {
      "type": "Feature",
      "properties": {
        "norad_id": 35848,
        "name": "IRIDIUM 33 DEB",
        "group": "iridium-33-debris",
        "lat": -63.33046866434547,
        "lon": 12.174783798443077,
        "alt_km": 640.1844704556179,
        "timestamp": "2025-12-05T11:32:56.402929+00:00",
        "meta_object_name": "IRIDIUM 33 DEB",
        "meta_object_id": "1997-051SY",
        "meta_epoch": "2025-12-01T10:21:45.439488",
        "meta_mean_motion": 14.7824162,
        "meta_eccentricity": 0.00067103,
        "meta_inclination": 86.3925,
        "meta_ra_of_asc_node": 21.2088,
        "meta_arg_of_pericenter": 240.9704,
        "meta_mean_anomaly": 119.0844,
        "meta_ephemeris_type": 0,
        "meta_classification_type": "U",
        "meta_norad_cat_id": 35848,
        "meta_element_set_no": 999,
        "meta_rev_at_epoch": 66523,
        "meta_bstar": 0.0018930249,
        "meta_mean_motion_dot": 0.00013775,
        "meta_mean_motion_ddot": 0,
        "tle_line1": "1 35848U 97051SY  25335.43177592  .00013775  00000+0  18930-2 0  9991",
        "tle_line2": "2 35848  86.3925  21.2088 0006710 240.9704 119.0844 14.78241620665238"
      },
      "geometry": {
        "type": "Point",
        "coordinates": [
          12.174783798443077,
          -63.33046866434547
        ]
      }
    },
    {
      "type": "Feature",
      "properties": {
        "norad_id": 35850,
        "name": "IRIDIUM 33 DEB",
        "group": "iridium-33-debris",
        "lat": -76.53451067525974,
        "lon": -176.98787908805437,
        "alt_km": 637.1486076351221,
        "timestamp": "2025-12-05T11:32:56.402939+00:00",
        "meta_object_name": "IRIDIUM 33 DEB",
        "meta_object_id": "1997-051TA",
        "meta_epoch": "2025-12-02T07:40:10.229376",
        "meta_mean_motion": 14.7843662,
        "meta_eccentricity": 0.0007989,
        "meta_inclination": 86.3497,
        "meta_ra_of_asc_node": 348.9861,
        "meta_arg_of_pericenter": 227.4621,
        "meta_mean_anomaly": 132.5925,
        "meta_ephemeris_type": 0,
        "meta_classification_type": "U",
        "meta_norad_cat_id": 35850,
        "meta_element_set_no": 999,
        "meta_rev_at_epoch": 71203,
        "meta_bstar": 0.0019125,
        "meta_mean_motion_dot": 0.00013983,
        "meta_mean_motion_ddot": 0,
        "tle_line1": "1 35850U 97051TA  25336.31956284  .00013983  00000+0  19125-2 0  9993",
        "tle_line2": "2 35850  86.3497 348.9861 0007989 227.4621 132.5925 14.78436620712037"
      },
      "geometry": {
        "type": "Point",
        "coordinates": [
          -176.98787908805437,
          -76.53451067525974
        ]
      }
    }
  ]
}